CTC1_L_00352016-03
1 10062U 25200KW  26075.70033565  .00000000  00000+0  00000-0 0  9996
2 10062  55.0000 180.0000 0000000   0.0000   0.0000 13.72670257    11
CTC1_L_00352016-04
1 10063U 23683GZ  26075.70033565  .00000000  00000+0  00000-0 0  9990
2 10063  55.0000 180.0000 0000000   0.0000  90.0000 13.72670257    11
CTC1_L_00352017-01
1 10064U 23582OW  26075.70033565  .00000000  00000+0  00000-0 0  9999
2 10064  55.0000 192.0000 0000000   0.0000 192.0000 13.72670257    18
CTC1_L_00352017-02
1 10065U 24773DJ  26075.70033565  .00000000  00000+0  00000-0 0  9993
2 10065  55.0000 192.0000 0000000   0.0000 282.0000 13.72670257    19
CTC1_L_00352017-03
1 10066U 26528VI  26075.70033565  .00000000  00000+0  00000-0 0  9994
2 10066  55.0000 192.0000 0000000   0.0000  12.0000 13.72670257    11
CTC1_L_00352017-04
1 10067U 25116HT  26075.70033565  .00000000  00000+0  00000-0 0  9997
2 10067  55.0000 192.0000 0000000   0.0000 102.0000 13.72670257    12
CTC1_L_00352018-01
1 10068U 24040WQ  26075.70033565  .00000000  00000+0  00000-0 0  9993
2 10068  55.0000 204.0000 0000000   0.0000 204.0000 13.72670257    10
CTC1_L_00352018-02
1 10069U 26947NX  26075.70033565  .00000000  00000+0  00000-0 0  9992
2 10069  55.0000 204.0000 0000000   0.0000 294.0000 13.72670257    10
CTC1_L_00352018-03
1 10070U 22554GT  26075.70033565  .00000000  00000+0  00000-0 0  9994
2 10070  55.0000 204.0000 0000000   0.0000  24.0000 13.72670257    13
CTC1_L_00352018-04
1 10071U 24795GC  26075.70033565  .00000000  00000+0  00000-0 0  9994
2 10071  55.0000 204.0000 0000000   0.0000 114.0000 13.72670257    14
CTC1_L_00352019-01
1 10072U 23745OK  26075.70033565  .00000000  00000+0  00000-0 0  9999
2 10072  55.0000 216.0000 0000000   0.0000 216.0000 13.72670257    11
CTC1_L_00352019-02
1 10073U 22501QP  26075.70033565  .00000000  00000+0  00000-0 0  9999
2 10073  55.0000 216.0000 0000000   0.0000 306.0000 13.72670257    12
CTC1_L_00352019-03
1 10074U 24799IW  26075.70033565  .00000000  00000+0  00000-0 0  9991
2 10074  55.0000 216.0000 0000000   0.0000  36.0000 13.72670257    13
CTC1_L_00352019-04
1 10075U 25612RZ  26075.70033565  .00000000  00000+0  00000-0 0  9997
2 10075  55.0000 216.0000 0000000   0.0000 126.0000 13.72670257    14
CTC1_L_00352020-01
1 10076U 23569C   26075.70033565  .00000000  00000+0  00000-0 0  9997
2 10076  55.0000 228.0000 0000000   0.0000 228.0000 13.72670257    11
CTC1_L_00352020-02
1 10077U 24506JO  26075.70033565  .00000000  00000+0  00000-0 0  9990
2 10077  55.0000 228.0000 0000000   0.0000 318.0000 13.72670257    12
CTC1_L_00352020-03
1 10078U 24842QM  26075.70033565  .00000000  00000+0  00000-0 0  9994
2 10078  55.0000 228.0000 0000000   0.0000  48.0000 13.72670257    13
CTC1_L_00352020-04
1 10079U 25717FH  26075.70033565  .00000000  00000+0  00000-0 0  9997
2 10079  55.0000 228.0000 0000000   0.0000 138.0000 13.72670257    14
CTC1_L_00352021-01
1 10080U 24433O   26075.70033565  .00000000  00000+0  00000-0 0  9993
2 10080  55.0000 240.0000 0000000   0.0000 240.0000 13.72670257    14
CTC1_L_00352021-02
1 10081U 23202JK  26075.70033565  .00000000  00000+0  00000-0 0  9997
2 10081  55.0000 240.0000 0000000   0.0000 330.0000 13.72670257    15
CTC1_L_00352021-03
1 10082U 24827KN  26075.70033565  .00000000  00000+0  00000-0 0  9992
2 10082  55.0000 240.0000 0000000   0.0000  60.0000 13.72670257    16
CTC1_L_00352021-04
1 10083U 23092OT  26075.70033565  .00000000  00000+0  00000-0 0  9996
2 10083  55.0000 240.0000 0000000   0.0000 150.0000 13.72670257    17
CTC1_L_00352022-01
1 10084U 26882X   26075.70033565  .00000000  00000+0  00000-0 0  9997
2 10084  55.0000 252.0000 0000000   0.0000 252.0000 13.72670257    14
CTC1_L_00352022-02
1 10085U 26506TV  26075.70033565  .00000000  00000+0  00000-0 0  9991
2 10085  55.0000 252.0000 0000000   0.0000 342.0000 13.72670257    15
CTC1_L_00352022-03
1 10086U 22978MP  26075.70033565  .00000000  00000+0  00000-0 0  9991
2 10086  55.0000 252.0000 0000000   0.0000  72.0000 13.72670257    16
CTC1_L_00352022-04
1 10087U 25796QO  26075.70033565  .00000000  00000+0  00000-0 0  9993
2 10087  55.0000 252.0000 0000000   0.0000 162.0000 13.72670257    17
CTC1_L_00352023-01
1 10088U 25987VW  26075.70033565  .00000000  00000+0  00000-0 0  9996
2 10088  55.0000 264.0000 0000000   0.0000 264.0000 13.72670257    14
CTC1_L_00352023-02
1 10089U 23174JZ  26075.70033565  .00000000  00000+0  00000-0 0  9993
2 10089  55.0000 264.0000 0000000   0.0000 354.0000 13.72670257    15
CTC1_L_00352023-03
1 10090U 22623TD  26075.70033565  .00000000  00000+0  00000-0 0  9993
2 10090  55.0000 264.0000 0000000   0.0000  84.0000 13.72670257    17
CTC1_L_00352023-04
1 10091U 23287NV  26075.70033565  .00000000  00000+0  00000-0 0  9991
2 10091  55.0000 264.0000 0000000   0.0000 174.0000 13.72670257    18
CTC1_L_00352024-01
1 10092U 26409KC  26075.70033565  .00000000  00000+0  00000-0 0  9991
2 10092  55.0000 276.0000 0000000   0.0000 276.0000 13.72670257    15
CTC1_L_00352024-02
1 10093U 25928AO  26075.70033565  .00000000  00000+0  00000-0 0  9997
2 10093  55.0000 276.0000 0000000   0.0000   6.0000 13.72670257    17
CTC1_L_00352024-03
1 10094U 25425YE  26075.70033565  .00000000  00000+0  00000-0 0  9990
2 10094  55.0000 276.0000 0000000   0.0000  96.0000 13.72670257    17
CTC1_L_00352024-04
1 10095U 22378EV  26075.70033565  .00000000  00000+0  00000-0 0  9995
2 10095  55.0000 276.0000 0000000   0.0000 186.0000 13.72670257    18
CTC1_L_00352025-01
1 10096U 22598HR  26075.70033565  .00000000  00000+0  00000-0 0  9990
2 10096  55.0000 288.0000 0000000   0.0000 288.0000 13.72670257    15
CTC1_L_00352025-02
1 10097U 25805MQ  26075.70033565  .00000000  00000+0  00000-0 0  9995
2 10097  55.0000 288.0000 0000000   0.0000  18.0000 13.72670257    17
CTC1_L_00352025-03
1 10098U 24522XY  26075.70033565  .00000000  00000+0  00000-0 0  9991
2 10098  55.0000 288.0000 0000000   0.0000 108.0000 13.72670257    18
CTC1_L_00352025-04
1 10099U 25137OE  26075.70033565  .00000000  00000+0  00000-0 0  9995
2 10099  55.0000 288.0000 0000000   0.0000 198.0000 13.72670257    18
CTC1_L_00352026-01
1 10100U 22558MM  26075.70033565  .00000000  00000+0  00000-0 0  9992
2 10100  55.0000 300.0000 0000000   0.0000 300.0000 13.72670257    11
CTC1_L_00352026-02
1 10101U 26358DW  26075.70033565  .00000000  00000+0  00000-0 0  9995
2 10101  55.0000 300.0000 0000000   0.0000  30.0000 13.72670257    12
CTC1_L_00352026-03
1 10102U 25075AB  26075.70033565  .00000000  00000+0  00000-0 0  9991
2 10102  55.0000 300.0000 0000000   0.0000 120.0000 13.72670257    13
CTC1_L_00352026-04
1 10103U 25535ZU  26075.70033565  .00000000  00000+0  00000-0 0  9993
2 10103  55.0000 300.0000 0000000   0.0000 210.0000 13.72670257    14
CTC1_L_00352027-01
1 10104U 23804ZU  26075.70033565  .00000000  00000+0  00000-0 0  9991
2 10104  55.0000 312.0000 0000000   0.0000 312.0000 13.72670257    11
CTC1_L_00352027-02
1 10105U 25432CG  26075.70033565  .00000000  00000+0  00000-0 0  9991
2 10105  55.0000 312.0000 0000000   0.0000  42.0000 13.72670257    12
CTC1_L_00352027-03
1 10106U 24672V   26075.70033565  .00000000  00000+0  00000-0 0  9997
2 10106  55.0000 312.0000 0000000   0.0000 132.0000 13.72670257    13
CTC1_L_00352027-04
1 10107U 24973ET  26075.70033565  .00000000  00000+0  00000-0 0  9992
2 10107  55.0000 312.0000 0000000   0.0000 222.0000 13.72670257    14
CTC1_L_00352028-01
1 10108U 25622FS  26075.70033565  .00000000  00000+0  00000-0 0  9995
2 10108  55.0000 324.0000 0000000   0.0000 324.0000 13.72670257    11
CTC1_L_00352028-02
1 10109U 22480EP  26075.70033565  .00000000  00000+0  00000-0 0  9995
2 10109  55.0000 324.0000 0000000   0.0000  54.0000 13.72670257    12
CTC1_L_00352028-03
1 10110U 24653OI  26075.70033565  .00000000  00000+0  00000-0 0  9991
2 10110  55.0000 324.0000 0000000   0.0000 144.0000 13.72670257    14
CTC1_L_00352028-04
1 10111U 23248HA  26075.70033565  .00000000  00000+0  00000-0 0  9991
2 10111  55.0000 324.0000 0000000   0.0000 234.0000 13.72670257    15
CTC1_L_00352029-01
1 10112U 24802MC  26075.70033565  .00000000  00000+0  00000-0 0  9999
2 10112  55.0000 336.0000 0000000   0.0000 336.0000 13.72670257    12
CTC1_L_00352029-02
1 10113U 22035QP  26075.70033565  .00000000  00000+0  00000-0 0  9996
2 10113  55.0000 336.0000 0000000   0.0000  66.0000 13.72670257    13
CTC1_L_00352029-03
1 10114U 22428GX  26075.70033565  .00000000  00000+0  00000-0 0  9993
2 10114  55.0000 336.0000 0000000   0.0000 156.0000 13.72670257    14
CTC1_L_00352029-04
1 10115U 22819YE  26075.70033565  .00000000  00000+0  00000-0 0  9998
2 10115  55.0000 336.0000 0000000   0.0000 246.0000 13.72670257    15
CTC1_L_00352030-01
1 10116U 22849FZ  26075.70033565  .00000000  00000+0  00000-0 0  9992
2 10116  55.0000 348.0000 0000000   0.0000 348.0000 13.72670257    12
CTC1_L_00352030-02
1 10117U 26933OY  26075.70033565  .00000000  00000+0  00000-0 0  9991
2 10117  55.0000 348.0000 0000000   0.0000  78.0000 13.72670257    13
CTC1_L_00352030-03
1 10118U 22038NG  26075.70033565  .00000000  00000+0  00000-0 0  9994
2 10118  55.0000 348.0000 0000000   0.0000 168.0000 13.72670257    14
CTC1_L_00352030-04
1 10119U 26222NR  26075.70033565  .00000000  00000+0  00000-0 0  9994
2 10119  55.0000 348.0000 0000000   0.0000 258.0000 13.72670257    15
